STARLINK-1623           
1 46129U 20057N   25299.89707385  .00001595  00000+0  12599-3 0  9998
2 46129  53.0530 157.2387 0001255  91.7973 268.3160 15.06388869286468
STARLINK-1624           
1 46130U 20057P   25300.33336806  .00122559  00000+0  33114-2 0  9997
2 46130  53.0547 153.6650 0001532 103.0337  33.6269 15.36834569  5604
STARLINK-1625           
1 46131U 20057Q   25300.33336806  .01729077  00000+0  44455-1 0  9996
2 46131  53.0542 173.7870 0001705  85.3139 278.9287 15.35599116  5396
STARLINK-1643           
1 46136U 20057V   25300.33336806  .00257737  00000+0  17278-2 0  9993
2 46136  53.0419 148.3894 0006724 115.2487 331.9261 15.73936487  5708
STARLINK-1596           
1 46141U 20057AA  25300.27589552  .00060074  00000+0  22658-2 0  9994
2 46141  53.0513 137.4288 0010037 137.8769 222.3002 15.26459914286777
STARLINK-1597           
1 46142U 20057AB  25300.02238685 -.00002017  00000+0 -11661-3 0  9994
2 46142  53.0541 196.6750 0001467  97.6175 262.4981 15.06381549285913
STARLINK-1606           
1 46144U 20057AD  25300.00002315  .00034845  00000+0  10989-2 0  9996
2 46144  53.0543 174.9177 0001589  89.0021 216.1177 15.32575059  5800
STARLINK-1608           
1 46146U 20057AF  25300.03344810  .00006015  00000+0  42235-3 0  9998
2 46146  53.0529 196.6259 0001320  86.9009 273.2131 15.06399948285922
STARLINK-1629           
1 46150U 20057AK  25300.00002315  .00158879  00000+0  29126-2 0  9990
2 46150  53.0301 163.7180 0014048 120.9816 317.0447 15.48154934  5702
STARLINK-1642           
1 46154U 20057AP  25299.91693219  .00109276  00000+0  23230-2 0  9997
2 46154  53.0500 171.8228 0012230  95.4961 264.7440 15.44091589286263
STARLINK-1667           
1 46155U 20057AQ  25300.25709661  .00074240  00000+0  24144-2 0  9994
2 46155  53.0336 141.5314 0010687 110.6390 249.5756 15.31192820287955
STARLINK-1545           
1 46156U 20057AR  25300.33336806  .01120700  00000+0  33838-1 0  9994
2 46156  53.0548 173.8067 0002025  85.4274  53.2887 15.30810603  5803
STARLINK-1587           
1 46157U 20057AS  25300.33336806  .00097691  00000+0  24138-2 0  9990
2 46157  53.0519 147.5574 0006956 166.8694 356.6124 15.39689250  5883
STARLINK-1595           
1 46159U 20057AU  25300.20668938  .00001313  00000+0  10706-3 0  9995
2 46159  53.0529 195.8500 0001759  93.4737 266.6453 15.06398123287203
STARLINK-1598           
1 46160U 20057AV  25299.93208840 -.00000243  00000+0  25879-5 0  9997
2 46160  53.0529 177.0782 0001678  99.1197 260.9981 15.06395617287435
STARLINK-1612           
1 46164U 20057AZ  25300.27597845  .00097460  00000+0  26139-2 0  9990
2 46164  53.0472 138.3593 0014401 121.2740 238.9675 15.37096349288020
STARLINK-1626           
1 46167U 20057BC  25300.04082364  .00002975  00000+0  21858-3 0  9994
2 46167  53.0524 196.5896 0001403  88.8441 271.2709 15.06387003285927
STARLINK-1627           
1 46168U 20057BD  25300.33336806  .00032847  00000+0  10422-2 0  9995
2 46168  53.0551 144.0131 0001389  85.4922 152.6895 15.32409951  5753
STARLINK-1628           
1 46169U 20057BE  25300.32606946  .01414757  14485-2  12359-2 0  9991
2 46169  53.0261  78.1539 0009510 307.8270  52.1903 16.12736944287550
STARLINK-1633           
1 46171U 20057BG  25300.33336806  .00036233  00000+0  11865-2 0  9994
2 46171  53.0530 173.5995 0000741 107.8870 314.0512 15.31348096  5808
STARLINK-1635           
1 46172U 20057BH  25300.24046154  .00069161  00000+0  22403-2 0  9995
2 46172  53.0554 173.6973 0001456 108.0806 252.0353 15.31403955287518
STARLINK-1640           
1 46173U 20057BJ  25300.01132895  .00002082  00000+0  15864-3 0  9992
2 46173  53.0533 196.7257 0001378  86.7328 273.3819 15.06390790285910
STARLINK-1641           
1 46174U 20057BK  25300.03266094  .00015374  00000+0  59867-3 0  9993
2 46174  53.0549 195.3768 0001021  66.0235 294.0870 15.26188303285939
STARLINK-1734           
1 46325U 20062A   25300.33336806  .00160529  00000+0  16089-2 0  9990
2 46325  53.0228 158.4566 0013605 101.8008  63.1731 15.64414668  5955
STARLINK-1654           
1 46326U 20062B   25300.33336806  .01091113  00000+0  33326-1 0  9996
2 46326  53.0568 254.4132 0001395  84.3490 343.4911 15.30515677  5704
STARLINK-1686           
1 46328U 20062D   25300.33336806  .01888434  00000+0  54075-1 0  9992
2 46328  53.0539 233.9764 0002232 108.4100  51.3390 15.32414921  5702
STARLINK-1695           
1 46329U 20062E   25300.12927401  .00023906  00000+0  16188-2 0  9995
2 46329  53.0552 236.1951 0001860  85.6177 274.5025 15.06388916284457
STARLINK-1710           
1 46330U 20062F   25300.03865365  .00103362  00000+0  22869-2 0  9995
2 46330  53.0477 216.0797 0011061  68.3489 291.8693 15.42949578284740
STARLINK-1719           
1 46331U 20062G   25300.30091254  .00083684  00000+0  27859-2 0  9992
2 46331  53.0535 252.7827 0003522 106.8511 253.2875 15.30426458284247
STARLINK-1723           
1 46333U 20062J   25300.33336806  .02105114  00000+0  81125-1 0  9992
2 46333  53.0531 254.7983 0001531  59.3155 306.6418 15.22195182  5755
STARLINK-1727           
1 46335U 20062L   25300.33336806  .01413003  00000+0  64109-1 0  9995
2 46335  53.0537 254.9879 0001771  71.7559  38.1641 15.17352237  5701
STARLINK-1738           
1 46336U 20062M   25300.04395999  .00109702  00000+0  23520-2 0  9992
2 46336  53.0487 216.6363 0014064  51.5881 308.6385 15.43812327284723
STARLINK-1750           
1 46337U 20062N   25300.08970706  .00113739  00000+0  26535-2 0  9996
2 46337  53.0503 228.0230 0009579  93.7759 266.4340 15.41326835284577
STARLINK-1752           
1 46338U 20062P   25300.33336806  .02058386  00000+0  84223-1 0  9997
2 46338  53.0551 254.9411 0000717  97.6035  95.4964 15.20214400  5759
STARLINK-1759           
1 46340U 20062R   25300.11131279  .00090746  00000+0  32513-2 0  9993
2 46340  53.0370 245.1060 0007648  40.6835 319.4734 15.27970729284325
STARLINK-1762           
1 46342U 20062T   25300.15692178  .00006779  00000+0  47345-3 0  9992
2 46342  53.0542 256.0704 0001468  81.8225 278.2930 15.06406983284185
STARLINK-1764           
1 46343U 20062U   25300.33336806  .01995840  00000+0  76441-1 0  9990
2 46343  53.0548 234.7908 0001505 108.1262  51.5435 15.22602173  5750
STARLINK-1765           
1 46344U 20062V   25300.01759043  .00139328  00000+0  35104-2 0  9990
2 46344  53.0532 231.5709 0005328 110.5337 249.6239 15.38900136284517
STARLINK-1767           
1 46345U 20062W   25300.33336806  .00164659  00000+0  29334-2 0  9997
2 46345  53.0458 233.5282 0012177  50.2480  57.5123 15.48975786  5818
STARLINK-1547           
1 46347U 20062Y   25300.00444051  .00079729  00000+0  25334-2 0  9994
2 46347  53.0471 197.1153 0008790  87.0579 273.1427 15.31921617284986
STARLINK-1553           
1 46348U 20062Z   25300.02131917  .00024323  00000+0  91675-3 0  9993
2 46348  53.0425 211.9035 0008847  77.4246 282.7741 15.26931701284790
STARLINK-1575           
1 46349U 20062AA  25299.99900493  .00110021  00000+0  25864-2 0  9997
2 46349  53.0399 192.3292 0012041  84.5713 275.6664 15.41088372285067
STARLINK-1646           
1 46351U 20062AC  25300.14033454  .00002003  00000+0  15328-3 0  9999
2 46351  53.0545 236.1402 0001554  97.6753 262.4413 15.06403689284472
STARLINK-1653           
1 46352U 20062AD  25300.33336806  .00039122  00000+0  13908-2 0  9991
2 46352  53.0532 233.9943 0001811  83.6644 284.4257 15.28644088  5806
STARLINK-1656           
1 46353U 20062AE  25300.18639618 -.00004398  00000+0 -27664-3 0  9996
2 46353  53.0537 255.9394 0001306  92.4396 267.6742 15.06390062284185
STARLINK-1657           
1 46354U 20062AF  25300.33336806  .01151003  00000+0  30172-1 0  9998
2 46354  53.0606 253.6982 0001472  67.3641 163.7467 15.35246219  5658
STARLINK-1661           
1 46355U 20062AG  25300.14954432  .00007169  00000+0  49943-3 0  9999
2 46355  53.0536 256.1030 0001507  89.7278 270.3883 15.06417637284182
STARLINK-1665           
1 46356U 20062AH  25300.33336806  .01808255  00000+0  54247-1 0  9997
2 46356  53.0545 254.2555 0001579  85.5549 300.2592 15.31045157  5754
STARLINK-1666           
1 46357U 20062AJ  25300.29145069  .00015665  00000+0  10673-2 0  9992
2 46357  53.0532 235.4648 0001778  96.3688 263.7503 15.06430859284483
STARLINK-1707           
1 46359U 20062AL  25299.99373753  .00074136  00000+0  23704-2 0  9998
2 46359  53.0343 192.9116 0009064  85.9922 274.2113 15.31754186285051
STARLINK-1726           
1 46362U 20062AP  25300.00156647  .00107411  00000+0  25933-2 0  9997
2 46362  53.0532 192.6455 0011977  81.6274 278.6087 15.40296096285067
STARLINK-1651           
1 46366U 20062AT  25300.00859381  .00094965  00000+0  22749-2 0  9997
2 46366  53.0486 203.5729 0008933 114.2642 245.9296 15.40629293284905
STARLINK-1724           
1 46375U 20062BC  25300.02734486  .00056891  00000+0  20082-2 0  9991
2 46375  53.0352 199.5741 0007698  62.9366 297.2417 15.28682459284964
STARLINK-1742           
1 46376U 20062BD  25300.00424550  .00101446  00000+0  25583-2 0  9996
2 46376  53.0385 184.4120 0013733  64.3030 295.9390 15.38978200285178
STARLINK-1769           
1 46382U 20062BK  25300.03290508  .00128867  00000+0  24803-2 0  9990
2 46382  53.0503 196.4504 0015456  96.0266 264.2503 15.46858745285011
STARLINK-1770           
1 46383U 20062BL  25300.10062449  .00109060  00000+0  28877-2 0  9999
2 46383  53.0520 237.1545 0007726  72.6061 287.5786 15.37504849284443
STARLINK-1771           
1 46384U 20062BM  25300.29074885  .00070209  00000+0  25934-2 0  9990
2 46384  53.0483 252.9888 0002471 125.2997 234.8232 15.27116639284235
STARLINK-1648           
1 46533U 20070B   25300.33336806  .01790422  00000+0  55092-1 0  9998
2 46533  53.0544  54.2193 0001080 102.7140  59.0045 15.30249575  5742
STARLINK-1663           
1 46535U 20070D   25300.33336806  .00116561  00000+0  34507-2 0  9994
2 46535  53.0548  53.8190 0000958  70.4818  98.1635 15.34001722  5806
